ONEWEB-0018             
1 45434U 20020L   25013.56059132 -.00000470  00000+0 -13610-2 0  9991
2 45434  87.8922 124.6299 0001710 108.1249 252.0065 13.11416112234522
ONEWEB-0083             
1 45435U 20020M   25013.70301385 -.00000401  00000+0 -11668-2 0  9993
2 45435  87.8913 124.5828 0001693 107.0216 253.1098 13.11413665234586
ONEWEB-0095             
1 45436U 20020N   25013.69467651 -.00000056  00000+0 -19466-3 0  9992
2 45436  87.8910 124.6142 0002230  91.0532 269.0851 13.11413045234580
ONEWEB-0092             
1 45437U 20020P   25013.59027507  .00000479  00000+0  13144-2 0  9997
2 45437  87.8912 124.6216 0001757  97.1985 262.9343 13.11417870234686
ONEWEB-0085             
1 45438U 20020Q   25013.69623627 -.00000109  00000+0 -34332-3 0  9999
2 45438  87.8912 124.6090 0001606 108.6419 251.4883 13.11413127234582
ONEWEB-0096             
1 45439U 20020R   25013.70470460 -.00000450  00000+0 -13042-2 0  9990
2 45439  87.8912 124.5752 0001379 110.9369 249.1906 13.11413677234573
ONEWEB-0037             
1 45440U 20020S   25013.30458185  .00000362  00000+0  98573-3 0  9991
2 45440  87.8905 124.6261 0001679 102.6173 257.5143 13.11414381234554
ONEWEB-0042             
1 45441U 20020T   25013.54180424 -.00000038  00000+0 -14338-3 0  9995
2 45441  87.8912 124.6195 0001555 107.8375 252.2922 13.11413264234559
